COSMOS 2251 DEB         
1 33892U 93036CV  17345.45425281  .00000167  00000-0  90649-4 0  9993
2 33892  73.8062 349.0232 0124569 178.2542 300.3773 14.16250641455155
